ONEWEB-0032             
1 45141U 20008L   23291.58906740  .00000527  00000+0  14738-2 0  9999
2 45141  87.8900 229.4455 0002026  72.3080 287.8269 13.10374032180926
ONEWEB-0033             
1 45142U 20008M   23291.56305387 -.00000411  00000+0 -12140-2 0  9997
2 45142  87.8905 229.4582 0001693  67.4273 292.7034 13.10377323180832
ONEWEB-0035             
1 45143U 20008N   23291.82463233  .00000688  00000+0  19346-2 0  9991
2 45143  87.8896 229.3795 0001813  72.9338 287.1988 13.10374739181480
ONEWEB-0036             
1 45144U 20008P   23291.58583034  .00000512  00000+0  14309-2 0  9997
2 45144  87.8900 229.3880 0002078  79.1539 280.9822 13.10375060180999
ONEWEB-0038             
1 45145U 20008Q   23291.52481919 -.00000202  00000+0 -60578-3 0  9999
2 45145  87.9002 214.2844 0002682  64.9664 295.1742 13.11419341182846
ONEWEB-0039             
1 45146U 20008R   23291.56630923 -.00000339  00000+0 -10075-2 0  9992
2 45146  87.8898 229.4109 0002392  83.1018 277.0381 13.10377705180780
ONEWEB-0040             
1 45147U 20008S   23291.10166820 -.00000481  00000+0 -14155-2 0  9994
2 45147  87.8902 229.4891 0002004  75.2265 284.9084 13.10376037180426
ONEWEB-0041             
1 45148U 20008T   23291.51925124  .00000120  00000+0  17007-3 0  9998
2 45148  87.9461 205.8984 0018668 135.0883 225.1780 13.48419355187770
